COSMOS 2419 (714)       
1 28915U 05050A   17279.35297387  .00000005  00000-0  00000+0 0  9999
2 28915  65.5512  62.1093 0015814 358.2726  47.3337  2.13106726 91706
COSMOS 2425 (716)       
1 29670U 06062A   17280.70490760  .00000019  00000-0  10000-3 0  9993
2 29670  65.4054 301.0678 0020407 338.0219  76.2290  2.13105046 83935
COSMOS 2426 (717)       
1 29671U 06062B   17280.45242007  .00000020  00000-0  10000-3 0  9997
2 29671  65.4234 301.1691 0018469 173.9924 264.0708  2.13103198 83933
COSMOS 2424 (715)       
1 29672U 06062C   17280.71002238  .00000019  00000-0  10000-3 0  9995
2 29672  65.4076 301.0799 0018080 172.6620 278.0952  2.13102438 83936
COSMOS 2433 (720)       
1 32275U 07052A   17280.54308343  .00000005  00000-0  10000-3 0  9990
2 32275  65.5680  61.8506 0001499 200.9908 281.0349  2.13104745 77444
COSMOS 2432 (719)       
1 32276U 07052B   17280.51386406  .00000005  00000-0  10000-3 0  9994
2 32276  65.5800  61.9246 0009486 343.4178  68.8246  2.13104002 77440
COSMOS 2434 (721)       
1 32393U 07065A   17280.65388216  .00000020  00000-0  00000+0 0  9996
2 32393  65.0222 300.1661 0003334 156.7093 299.3751  2.13103019 76155
COSMOS 2436 (723)       
1 32395U 07065C   17280.52443560  .00000020  00000-0  10000-3 0  9993
2 32395  65.0317 300.2167 0013578 349.9322  56.0962  2.13104377 76088
COSMOS 2443 (725)       
1 33379U 08046B   17280.80315436  .00000004  00000-0  00000+0 0  9994
2 33379  65.4979  61.2141 0013009 177.2151  42.7588  2.13099412 70315
COSMOS 2456 (730)       
1 36111U 09070A   17280.44771591  .00000040  00000-0  00000+0 0  9997
2 36111  64.1800 179.7384 0004562 314.6701 154.7428  2.13103047 60818
COSMOS 2457 (733)       
1 36112U 09070B   17280.66668255  .00000040  00000-0  00000+0 0  9994
2 36112  64.1621 179.6482 0006109 168.9665 236.4862  2.13101818 60821
COSMOS 2458 (734)       
1 36113U 09070C   17280.64542309  .00000040  00000-0  10000-3 0  9999
2 36113  64.1689 179.6573 0001579   0.0049  77.2106  2.13101897 60824
COSMOS 2459 (731)       
1 36400U 10007A   17280.38971116  .00000003  00000-0  10000-3 0  9992
2 36400  65.4765  60.9474 0025871 356.4593 229.0414  2.13102232 59165
COSMOS 2461 (735)       
1 36401U 10007B   17280.36223806  .00000003  00000-0  10000-3 0  9997
2 36401  65.4688  60.9255 0008303  80.5875  34.4548  2.13102226 59165
COSMOS 2460 (732)       
1 36402U 10007C   17279.80481001  .00000003  00000-0  10000-3 0  9998
2 36402  65.4597  60.9150 0002290 115.1582 333.3039  2.13101782 59159
COSMOS 2465 (737)       
1 37138U 10041B   17280.27623285  .00000020  00000-0  00000+0 0  9992
2 37138  64.6190 300.1108 0036491 172.6363  36.8242  2.13097553 55239
COSMOS 2464 (736)       
1 37139U 10041C   17280.48143979  .00000019  00000-0  00000+0 0  9991
2 37139  64.6266 300.1024 0021321   6.8219 184.7095  2.13102767 55238
COSMOS 2471 (701K)      
1 37372U 11009A   17280.41617677  .00000003  00000-0  00000+0 0  9992
2 37372  65.4567  60.8418 0007476 220.9003 115.1053  2.13107662 51431
COSMOS 2474 (742)       
1 37829U 11055A   17280.54730958  .00000040  00000-0  00000+0 0  9993
2 37829  64.5040 180.3465 0008538 249.3022 155.7957  2.13101991 46818
COSMOS 2476 (744)       
1 37867U 11064A   17280.60908961  .00000040  00000-0  00000+0 0  9993
2 37867  64.4848 180.4137 0017951 243.5109 254.9511  2.13102041 46166
COSMOS 2477 (745)       
1 37868U 11064B   17280.43563041  .00000040  00000-0  00000+0 0  9991
2 37868  64.4923 180.4657 0015742 244.6779 299.7816  2.13101957 46114
COSMOS 2475 (743)       
1 37869U 11064C   17280.61186424  .00000040  00000-0  00000+0 0  9998
2 37869  64.4998 180.4513 0020518 270.5716   5.5980  2.13102286 46126
COSMOS 2485 (747)       
1 39155U 13019A   17279.80362193  .00000040  00000-0  00000+0 0  9998
2 39155  64.6540 180.4953 0018384 238.2409  47.2845  2.13102114 34611
COSMOS 2492 (754)       
1 39620U 14012A   17280.42322236  .00000003  00000-0  10000-3 0  9997
2 39620  65.3498  60.8148 0012727 335.9285  99.3051  2.13103456 27582
COSMOS 2500 (755)       
1 40001U 14032A   17280.45839689  .00000003  00000-0  00000+0 0  9997
2 40001  65.2913  60.8034 0006482 186.5711 138.4693  2.13102854 25796
COSMOS 2501 (702K)      
1 40315U 14075A   17280.42575698  .00000017  00000-0  00000+0 0  9991
2 40315  64.3526 301.4069 0017037 211.5032 253.1246  2.13098685 22207
COSMOS 2514 (751)       
1 41330U 16008A   17280.66301549  .00000003  00000-0  00000+0 0  9990
2 41330  65.0914  60.9117 0009209 201.5606 100.7238  2.13103389 12961
COSMOS 2516 (753)       
1 41554U 16032A   17280.45670433  .00000018  00000-0  00000+0 0  9999
2 41554  64.5728 301.1989 0014678 223.4997 172.5410  2.13101715 10570
